STARLINK-37970          
1 69706U 26147C   26192.62278573  .00200849  00000+0  10251-2 0  9991
2 69706  97.2833 228.8050 0001188  99.0020 261.1383 15.80820936  3295
STARLINK-37975          
1 69707U 26147D   26192.62202736  .00156224  00000+0  80001-3 0  9998
2 69707  97.2849 228.8069 0001669  83.5263 276.6195 15.80865083  3298
STARLINK-37963          
1 69709U 26147F   26192.62053351  .00149787  00000+0  76848-3 0  9997
2 69709  97.2827 228.8078 0001808  77.7244 282.4227 15.80841083  3290
STARLINK-37969          
1 69710U 26147G   26192.61977852  .00185614  00000+0  94976-3 0  9990
2 69710  97.2839 228.8109 0001364 119.2681 240.8724 15.80805194  3297
STARLINK-37956          
1 69711U 26147H   26192.61902820  .00185605  00000+0  94926-3 0  9999
2 69711  97.2840 228.8115 0001327 109.1373 251.0039 15.80815998  3298
STARLINK-38043          
1 69712U 26147J   26192.61828004  .00178790  00000+0  91541-3 0  9998
2 69712  97.2830 228.8125 0001958  70.7573 289.3907 15.80809006  3295
STARLINK-38020          
1 69713U 26147K   26192.61750944  .00230058  00000+0  11659-2 0  9993
2 69713  97.2834 228.8161 0000736  76.1831 283.9519 15.80900509  3299
STARLINK-38059          
1 69714U 26147L   26192.61677151  .00122890  00000+0  63236-3 0  9995
2 69714  97.2844 228.8134 0001502  95.7332 264.4107 15.80848920  3291
STARLINK-38061          
1 69715U 26147M   26192.61601757  .00147209  00000+0  75763-3 0  9994
2 69715  97.2857 228.8164 0001559 158.1317 202.0018 15.80779276  3294
STARLINK-38060          
1 69716U 26147N   26192.61527432  .00279567  00000+0  14129-2 0  9993
2 69716  97.2880 228.8114 0001985 101.9510 258.1981 15.80832449  3293
STARLINK-38040          
1 69717U 26147P   26192.86772289  .00132480  00000+0  67967-3 0  9994
2 69717  97.2833 229.0824 0001515 105.5449 254.5987 15.80888438  3333
STARLINK-37989          
1 69718U 26147Q   26191.53721707  .00313152  00000+0  15133-2 0  9991
2 69718  97.2849 227.6798 0001760 163.9316 196.2009 15.81725931  3121
STARLINK-38039          
1 69719U 26147R   26191.53689243  .00345258  00000+0  17183-2 0  9999
2 69719  97.2855 227.6808 0001294 335.4308  24.6899 15.81001041  3120
STARLINK-38003          
1 69720U 26147S   26192.61226259  .00113759  00000+0  58602-3 0  9996
2 69720  97.2838 228.8191 0001496 129.8381 230.3019 15.80849704  3294
STARLINK-37915          
1 69722U 26147U   26192.61076352  .00179933  00000+0  91727-3 0  9996
2 69722  97.2855 228.8240 0001194  79.4953 280.6450 15.80901954  3293
STARLINK-38007          
1 69723U 26147V   26192.80292191  .03453267  00000+0  14510-1 0  9990
2 69723  97.2819 229.0189 0004672 283.2429  76.8319 15.82279734  3325
STARLINK-38008          
1 69724U 26147W   26192.67255660  .00145343  00000+0  74609-3 0  9993
2 69724  97.2839 228.8908 0001369 122.6606 237.4795 15.80841230  3302
STARLINK-38021          
1 69725U 26147X   26192.67181282  .00348122  00000+0  17324-2 0  9992
2 69725  97.2836 228.8976 0002262   1.4335 358.6939 15.80995338  3306
SXM-11                  
1 69728U 26148A   26192.19375704 -.00000009  00000+0  00000+0 0  9997
2 69728   0.1241 265.9539 0001165  38.0982 293.8842  1.00471175   286
